[{"OBJECT_NAME":"ION SCV-004","OBJECT_ID":"2022-002K","EPOCH":"2026-03-09T16:32:03.244416","MEAN_MOTION":15.29369331,"ECCENTRICITY":0.00072157,"INCLINATION":97.2961,"RA_OF_ASC_NODE":128.2294,"ARG_OF_PERICENTER":1.6783,"MEAN_ANOMALY":358.448,"EPHEMERIS_TYPE":0,"CLASSIFICATION_TYPE":"U","NORAD_CAT_ID":50993,"ELEMENT_SET_NO":999,"REV_AT_EPOCH":23008,"BSTAR":0.00023198467,"MEAN_MOTION_DOT":6.538e-5,"MEAN_MOTION_DDOT":0},{"OBJECT_NAME":"STARLINK-36508","OBJECT_ID":"2026-005G","EPOCH":"2026-03-09T18:21:01.929024","MEAN_MOTION":15.27606918,"ECCENTRICITY":0.00029463,"INCLINATION":43.0018,"RA_OF_ASC_NODE":237.9375,"ARG_OF_PERICENTER":282.2963,"MEAN_ANOMALY":77.7559,"EPHEMERIS_TYPE":0,"CLASSIFICATION_TYPE":"U","NORAD_CAT_ID":67410,"ELEMENT_SET_NO":999,"REV_AT_EPOCH":870,"BSTAR":0.0012482144,"MEAN_MOTION_DOT":0.00034276,"MEAN_MOTION_DDOT":0}]
