ION SCV-004             
1 50993U 22002K   26068.68892644  .00006538  00000+0  23198-3 0  9998
2 50993  97.2961 128.2294 0007216   1.6783 358.4480 15.29369331230088
STARLINK-36508          
1 67410U 26005G   26068.76460565  .00034276  00000+0  12482-2 0  9992
2 67410  43.0018 237.9375 0002946 282.2963  77.7559 15.27606918  8705
